STARLINK-32905          
1 62923U 25027S   25353.68106485  .00021479  00000+0  78728-3 0  9991
2 62923  42.9941 220.9248 0000301  81.0716 279.0170 15.27600043 49307
STARLINK-32871          
1 62924U 25027T   25353.33871450  .00009013  00000+0  33656-3 0  9996
2 62924  42.9983 222.6440 0000903 267.6868  92.3880 15.27586366 49254
STARLINK-32920          
1 62925U 25027U   25353.07331296  .00007634  00000+0  28666-3 0  9999
2 62925  42.9983 224.0939 0001111 280.4680  79.6046 15.27580718 49214
STARLINK-32922          
1 62926U 25027V   25353.67721245  .00014355  00000+0  52988-3 0  9995
2 62926  42.9991 220.8918 0001341  20.8808 339.2098 15.27596155 49302
STARLINK-32891          
1 62927U 25027W   25353.68362536  .00016642  00000+0  61229-3 0  9990
2 62927  42.9991 220.9414 0001155 248.4748 111.5981 15.27613029 49424
STARLINK-32728          
1 62948U 25029A   25353.43725049  .00004615  00000+0  16793-3 0  9993
2 62948  53.1595 242.8771 0000756 151.2448 208.8595 15.30182753 49109
STARLINK-32857          
1 62949U 25029B   25353.02953242  .00018423  00000+0  63256-3 0  9995
2 62949  53.1620 244.6062 0001043 105.5738 254.5378 15.30201352 49043
STARLINK-32850          
1 62950U 25029C   25353.13230963  .00013217  00000+0  45759-3 0  9991
2 62950  53.1585 246.6580 0001243  68.2737 291.8396 15.30198377 48997
STARLINK-32875          
1 62951U 25029D   25353.83968909  .00017756  00000+0  61003-3 0  9999
2 62951  53.1578 241.1223 0001757 110.8415 249.2774 15.30208230 49135
STARLINK-32865          
1 62952U 25029E   25353.84444016  .00015320  00000+0  52824-3 0  9995
2 62952  53.1586 243.2796 0001480 103.8016 256.3149 15.30203752 49101
STARLINK-32884          
1 62953U 25029F   25353.83652581  .00015159  00000+0  52288-3 0  9997
2 62953  53.1590 241.1041 0001477  92.9421 267.1749 15.30199820 49130
STARLINK-32874          
1 62954U 25029G   25353.69217781  .00014497  00000+0  50059-3 0  9999
2 62954  53.1597 241.6237 0001515  86.7965 273.3209 15.30201796 49111
STARLINK-32880          
1 62955U 25029H   25353.84338519  .00015435  00000+0  53214-3 0  9999
2 62955  53.1586 243.2705 0001587  96.0152 264.1030 15.30202275 49101
STARLINK-32815          
1 62956U 25029J   25353.83441442  .00014579  00000+0  50334-3 0  9997
2 62956  53.1594 241.0893 0001421  84.8408 275.2755 15.30202610 49134
STARLINK-32879          
1 62957U 25029K   25353.41045433  .00013159  00000+0  45573-3 0  9994
2 62957  53.1578 245.5536 0001309  91.0054 269.1097 15.30192807 49027
STARLINK-32885          
1 62958U 25029L   25353.83546870  .00014134  00000+0  48834-3 0  9999
2 62958  53.1599 241.0936 0001457  98.0675 262.0491 15.30204961 49122
