[{"OBJECT_NAME":"STARLINK-32905","OBJECT_ID":"2025-027S","EPOCH":"2025-12-19T16:20:44.003040","MEAN_MOTION":15.27600043,"ECCENTRICITY":3.01e-5,"INCLINATION":42.9941,"RA_OF_ASC_NODE":220.9248,"ARG_OF_PERICENTER":81.0716,"MEAN_ANOMALY":279.017,"EPHEMERIS_TYPE":0,"CLASSIFICATION_TYPE":"U","NORAD_CAT_ID":62923,"ELEMENT_SET_NO":999,"REV_AT_EPOCH":4930,"BSTAR":0.00078728,"MEAN_MOTION_DOT":0.00021479,"MEAN_MOTION_DDOT":0},{"OBJECT_NAME":"STARLINK-32871","OBJECT_ID":"2025-027T","EPOCH":"2025-12-19T08:07:44.932800","MEAN_MOTION":15.27586366,"ECCENTRICITY":9.03e-5,"INCLINATION":42.9983,"RA_OF_ASC_NODE":222.644,"ARG_OF_PERICENTER":267.6868,"MEAN_ANOMALY":92.388,"EPHEMERIS_TYPE":0,"CLASSIFICATION_TYPE":"U","NORAD_CAT_ID":62924,"ELEMENT_SET_NO":999,"REV_AT_EPOCH":4925,"BSTAR":0.00033656,"MEAN_MOTION_DOT":9.013e-5,"MEAN_MOTION_DDOT":0},{"OBJECT_NAME":"STARLINK-32920","OBJECT_ID":"2025-027U","EPOCH":"2025-12-19T01:45:34.239744","MEAN_MOTION":15.27580718,"ECCENTRICITY":0.00011117,"INCLINATION":42.9983,"RA_OF_ASC_NODE":224.0939,"ARG_OF_PERICENTER":280.468,"MEAN_ANOMALY":79.6046,"EPHEMERIS_TYPE":0,"CLASSIFICATION_TYPE":"U","NORAD_CAT_ID":62925,"ELEMENT_SET_NO":999,"REV_AT_EPOCH":4921,"BSTAR":0.00028665575,"MEAN_MOTION_DOT":7.634e-5,"MEAN_MOTION_DDOT":0},{"OBJECT_NAME":"STARLINK-32922","OBJECT_ID":"2025-027V","EPOCH":"2025-12-19T16:15:11.155680","MEAN_MOTION":15.27596155,"ECCENTRICITY":0.0001341,"INCLINATION":42.9991,"RA_OF_ASC_NODE":220.8918,"ARG_OF_PERICENTER":20.8808,"MEAN_ANOMALY":339.2098,"EPHEMERIS_TYPE":0,"CLASSIFICATION_TYPE":"U","NORAD_CAT_ID":62926,"ELEMENT_SET_NO":999,"REV_AT_EPOCH":4930,"BSTAR":0.00052988,"MEAN_MOTION_DOT":0.00014355,"MEAN_MOTION_DDOT":0},{"OBJECT_NAME":"STARLINK-32891","OBJECT_ID":"2025-027W","EPOCH":"2025-12-19T16:24:25.231104","MEAN_MOTION":15.27613029,"ECCENTRICITY":0.0001155,"INCLINATION":42.9991,"RA_OF_ASC_NODE":220.9414,"ARG_OF_PERICENTER":248.4748,"MEAN_ANOMALY":111.5981,"EPHEMERIS_TYPE":0,"CLASSIFICATION_TYPE":"U","NORAD_CAT_ID":62927,"ELEMENT_SET_NO":999,"REV_AT_EPOCH":4942,"BSTAR":0.00061229,"MEAN_MOTION_DOT":0.00016642,"MEAN_MOTION_DDOT":0},{"OBJECT_NAME":"STARLINK-32728","OBJECT_ID":"2025-029A","EPOCH":"2025-12-19T10:29:38.442336","MEAN_MOTION":15.30182753,"ECCENTRICITY":7.56e-5,"INCLINATION":53.1595,"RA_OF_ASC_NODE":242.8771,"ARG_OF_PERICENTER":151.2448,"MEAN_ANOMALY":208.8595,"EPHEMERIS_TYPE":0,"CLASSIFICATION_TYPE":"U","NORAD_CAT_ID":62948,"ELEMENT_SET_NO":999,"REV_AT_EPOCH":4910,"BSTAR":0.00016793,"MEAN_MOTION_DOT":4.615e-5,"MEAN_MOTION_DDOT":0},{"OBJECT_NAME":"STARLINK-32857","OBJECT_ID":"2025-029B","EPOCH":"2025-12-19T00:42:31.601088","MEAN_MOTION":15.30201352,"ECCENTRICITY":0.00010434,"INCLINATION":53.162,"RA_OF_ASC_NODE":244.6062,"ARG_OF_PERICENTER":105.5738,"MEAN_ANOMALY":254.5378,"EPHEMERIS_TYPE":0,"CLASSIFICATION_TYPE":"U","NORAD_CAT_ID":62949,"ELEMENT_SET_NO":999,"REV_AT_EPOCH":4904,"BSTAR":0.00063255934,"MEAN_MOTION_DOT":0.00018423,"MEAN_MOTION_DDOT":0},{"OBJECT_NAME":"STARLINK-32850","OBJECT_ID":"2025-029C","EPOCH":"2025-12-19T03:10:31.552032","MEAN_MOTION":15.30198377,"ECCENTRICITY":0.00012439,"INCLINATION":53.1585,"RA_OF_ASC_NODE":246.658,"ARG_OF_PERICENTER":68.2737,"MEAN_ANOMALY":291.8396,"EPHEMERIS_TYPE":0,"CLASSIFICATION_TYPE":"U","NORAD_CAT_ID":62950,"ELEMENT_SET_NO":999,"REV_AT_EPOCH":4899,"BSTAR":0.00045759281,"MEAN_MOTION_DOT":0.00013217,"MEAN_MOTION_DDOT":0},{"OBJECT_NAME":"STARLINK-32875","OBJECT_ID":"2025-029D","EPOCH":"2025-12-19T20:09:09.137376","MEAN_MOTION":15.3020823,"ECCENTRICITY":0.0001757,"INCLINATION":53.1578,"RA_OF_ASC_NODE":241.1223,"ARG_OF_PERICENTER":110.8415,"MEAN_ANOMALY":249.2774,"EPHEMERIS_TYPE":0,"CLASSIFICATION_TYPE":"U","NORAD_CAT_ID":62951,"ELEMENT_SET_NO":999,"REV_AT_EPOCH":4913,"BSTAR":0.00061003,"MEAN_MOTION_DOT":0.00017756,"MEAN_MOTION_DDOT":0},{"OBJECT_NAME":"STARLINK-32865","OBJECT_ID":"2025-029E","EPOCH":"2025-12-19T20:15:59.629824","MEAN_MOTION":15.30203752,"ECCENTRICITY":0.000148,"INCLINATION":53.1586,"RA_OF_ASC_NODE":243.2796,"ARG_OF_PERICENTER":103.8016,"MEAN_ANOMALY":256.3149,"EPHEMERIS_TYPE":0,"CLASSIFICATION_TYPE":"U","NORAD_CAT_ID":62952,"ELEMENT_SET_NO":999,"REV_AT_EPOCH":4910,"BSTAR":0.00052824,"MEAN_MOTION_DOT":0.0001532,"MEAN_MOTION_DDOT":0},{"OBJECT_NAME":"STARLINK-32884","OBJECT_ID":"2025-029F","EPOCH":"2025-12-19T20:04:35.829984","MEAN_MOTION":15.3019982,"ECCENTRICITY":0.0001477,"INCLINATION":53.159,"RA_OF_ASC_NODE":241.1041,"ARG_OF_PERICENTER":92.9421,"MEAN_ANOMALY":267.1749,"EPHEMERIS_TYPE":0,"CLASSIFICATION_TYPE":"U","NORAD_CAT_ID":62953,"ELEMENT_SET_NO":999,"REV_AT_EPOCH":4913,"BSTAR":0.00052288,"MEAN_MOTION_DOT":0.00015159,"MEAN_MOTION_DDOT":0},{"OBJECT_NAME":"STARLINK-32874","OBJECT_ID":"2025-029G","EPOCH":"2025-12-19T16:36:44.162784","MEAN_MOTION":15.30201796,"ECCENTRICITY":0.0001515,"INCLINATION":53.1597,"RA_OF_ASC_NODE":241.6237,"ARG_OF_PERICENTER":86.7965,"MEAN_ANOMALY":273.3209,"EPHEMERIS_TYPE":0,"CLASSIFICATION_TYPE":"U","NORAD_CAT_ID":62954,"ELEMENT_SET_NO":999,"REV_AT_EPOCH":4911,"BSTAR":0.00050059,"MEAN_MOTION_DOT":0.00014497,"MEAN_MOTION_DDOT":0},{"OBJECT_NAME":"STARLINK-32880","OBJECT_ID":"2025-029H","EPOCH":"2025-12-19T20:14:28.480416","MEAN_MOTION":15.30202275,"ECCENTRICITY":0.0001587,"INCLINATION":53.1586,"RA_OF_ASC_NODE":243.2705,"ARG_OF_PERICENTER":96.0152,"MEAN_ANOMALY":264.103,"EPHEMERIS_TYPE":0,"CLASSIFICATION_TYPE":"U","NORAD_CAT_ID":62955,"ELEMENT_SET_NO":999,"REV_AT_EPOCH":4910,"BSTAR":0.00053214,"MEAN_MOTION_DOT":0.00015435,"MEAN_MOTION_DDOT":0},{"OBJECT_NAME":"STARLINK-32815","OBJECT_ID":"2025-029J","EPOCH":"2025-12-19T20:01:33.405888","MEAN_MOTION":15.3020261,"ECCENTRICITY":0.0001421,"INCLINATION":53.1594,"RA_OF_ASC_NODE":241.0893,"ARG_OF_PERICENTER":84.8408,"MEAN_ANOMALY":275.2755,"EPHEMERIS_TYPE":0,"CLASSIFICATION_TYPE":"U","NORAD_CAT_ID":62956,"ELEMENT_SET_NO":999,"REV_AT_EPOCH":4913,"BSTAR":0.00050334,"MEAN_MOTION_DOT":0.00014579,"MEAN_MOTION_DDOT":0},{"OBJECT_NAME":"STARLINK-32879","OBJECT_ID":"2025-029K","EPOCH":"2025-12-19T09:51:03.254112","MEAN_MOTION":15.30192807,"ECCENTRICITY":0.0001309,"INCLINATION":53.1578,"RA_OF_ASC_NODE":245.5536,"ARG_OF_PERICENTER":91.0054,"MEAN_ANOMALY":269.1097,"EPHEMERIS_TYPE":0,"CLASSIFICATION_TYPE":"U","NORAD_CAT_ID":62957,"ELEMENT_SET_NO":999,"REV_AT_EPOCH":4902,"BSTAR":0.00045573,"MEAN_MOTION_DOT":0.00013159,"MEAN_MOTION_DDOT":0},{"OBJECT_NAME":"STARLINK-32885","OBJECT_ID":"2025-029L","EPOCH":"2025-12-19T20:03:04.495680","MEAN_MOTION":15.30204961,"ECCENTRICITY":0.0001457,"INCLINATION":53.1599,"RA_OF_ASC_NODE":241.0936,"ARG_OF_PERICENTER":98.0675,"MEAN_ANOMALY":262.0491,"EPHEMERIS_TYPE":0,"CLASSIFICATION_TYPE":"U","NORAD_CAT_ID":62958,"ELEMENT_SET_NO":999,"REV_AT_EPOCH":4912,"BSTAR":0.00048834,"MEAN_MOTION_DOT":0.00014134,"MEAN_MOTION_DDOT":0}]
